IRIDIUM 126             
1 42809U 17039G   24134.90429045  .00000280  00000+0  92913-4 0  9997
2 42809  86.3934 313.0433 0002268  85.4024 274.7431 14.34217584360406
IRIDIUM 124             
1 42810U 17039H   24134.40253953  .00001711  00000+0  50242-3 0  9995
2 42810  86.4499 249.9564 0002069  93.3963 266.7474 14.43300594364806
IRIDIUM 128             
1 42811U 17039J   24134.82525156  .00000113  00000+0  33270-4 0  9997
2 42811  86.3970 344.6018 0001887  84.7353 275.4058 14.34222993360426
IRIDIUM 121             
1 42812U 17039K   24134.50470369  .00000326  00000+0  10919-3 0  9998
2 42812  86.3935 313.2327 0002163  91.0227 269.1217 14.34215650360229
IRIDIUM 133             
1 42955U 17061A   24134.85696581  .00000384  00000+0  12987-3 0  9996
2 42955  86.3977 344.6868 0002187  85.6215 274.5230 14.34222023345223
IRIDIUM 100             
1 42956U 17061B   24135.12970766  .00000840  00000+0  29268-3 0  9995
2 42956  86.3961 344.5113 0002162  89.1328 271.0115 14.34217910345285
IRIDIUM 122             
1 42957U 17061C   24134.88867475  .00000770  00000+0  26775-3 0  9992
2 42957  86.3973 344.6082 0002146  86.1580 273.9861 14.34224458345233
IRIDIUM 129             
1 42958U 17061D   24135.12335680  .00000139  00000+0  42587-4 0  9998
2 42958  86.3972 344.5686 0002225  82.2410 277.9039 14.34212393345280
